{
  "type": "FeatureCollection",
  "features": [
    {
      "type": "Feature",
      "properties": {
        "norad_id": 43564,
        "name": "GSAT0221 (GALILEO 25)",
        "group": "galileo",
        "lat": 2.759245077182733,
        "lon": -11.544145137130164,
        "alt_km": 23217.961078961715,
        "timestamp": "2025-12-17T19:34:08.301592+00:00",
        "meta_object_name": "GSAT0221 (GALILEO 25)",
        "meta_object_id": "2018-060A",
        "meta_epoch": "2025-12-16T15:17:04.727328",
        "meta_mean_motion": 1.70475939,
        "meta_eccentricity": 0.00067149,
        "meta_inclination": 57.227,
        "meta_ra_of_asc_node": 346.7122,
        "meta_arg_of_pericenter": 284.7642,
        "meta_mean_anomaly": 75.1785,
        "meta_ephemeris_type": 0,
        "meta_classification_type": "U",
        "meta_norad_cat_id": 43564,
        "meta_element_set_no": 999,
        "meta_rev_at_epoch": 4605,
        "meta_bstar": 0,
        "meta_mean_motion_dot": -8e-07,
        "meta_mean_motion_ddot": 0,
        "tle_line1": "1 43564U 18060A   25350.63686027 -.00000080  00000+0  00000+0 0  9997",
        "tle_line2": "2 43564  57.2270 346.7122 0006714 284.7642  75.1785  1.70475939 46056"
      },
      "geometry": {
        "type": "Point",
        "coordinates": [
          -11.544145137130164,
          2.759245077182733
        ]
      }
    },
    {
      "type": "Feature",
      "properties": {
        "norad_id": 43565,
        "name": "GSAT0222 (GALILEO 26)",
        "group": "galileo",
        "lat": -39.08814534234544,
        "lon": -161.76315805857826,
        "alt_km": 23212.049544641828,
        "timestamp": "2025-12-17T19:34:08.301603+00:00",
        "meta_object_name": "GSAT0222 (GALILEO 26)",
        "meta_object_id": "2018-060B",
        "meta_epoch": "2025-12-14T12:14:12.279840",
        "meta_mean_motion": 1.70475606,
        "meta_eccentricity": 0.00061133,
        "meta_inclination": 57.2308,
        "meta_ra_of_asc_node": 346.7727,
        "meta_arg_of_pericenter": 264.5011,
        "meta_mean_anomaly": 95.4481,
        "meta_ephemeris_type": 0,
        "meta_classification_type": "U",
        "meta_norad_cat_id": 43565,
        "meta_element_set_no": 999,
        "meta_rev_at_epoch": 4606,
        "meta_bstar": 0,
        "meta_mean_motion_dot": -8.4e-07,
        "meta_mean_motion_ddot": 0,
        "tle_line1": "1 43565U 18060B   25348.50986435 -.00000084  00000+0  00000+0 0  9991",
        "tle_line2": "2 43565  57.2308 346.7727 0006113 264.5011  95.4481  1.70475606 46069"
      },
      "geometry": {
        "type": "Point",
        "coordinates": [
          -161.76315805857826,
          -39.08814534234544
        ]
      }
    },
    {
      "type": "Feature",
      "properties": {
        "norad_id": 43566,
        "name": "GSAT0219 (GALILEO 23)",
        "group": "galileo",
        "lat": 57.091769410431105,
        "lon": 82.07101090312767,
        "alt_km": 23232.17427175483,
        "timestamp": "2025-12-17T19:34:08.301614+00:00",
        "meta_object_name": "GSAT0219 (GALILEO 23)",
        "meta_object_id": "2018-060C",
        "meta_epoch": "2025-12-15T21:42:00.874656",
        "meta_mean_motion": 1.70475845,
        "meta_eccentricity": 0.00058258,
        "meta_inclination": 57.2298,
        "meta_ra_of_asc_node": 346.7365,
        "meta_arg_of_pericenter": 287.9846,
        "meta_mean_anomaly": 71.9699,
        "meta_ephemeris_type": 0,
        "meta_classification_type": "U",
        "meta_norad_cat_id": 43566,
        "meta_element_set_no": 999,
        "meta_rev_at_epoch": 4606,
        "meta_bstar": 0,
        "meta_mean_motion_dot": -8.2e-07,
        "meta_mean_motion_ddot": 0,
        "tle_line1": "1 43566U 18060C   25349.90417679 -.00000082  00000+0  00000+0 0  9994",
        "tle_line2": "2 43566  57.2298 346.7365 0005825 287.9846  71.9699  1.70475845 46065"
      },
      "geometry": {
        "type": "Point",
        "coordinates": [
          82.07101090312767,
          57.091769410431105
        ]
      }
    },
    {
      "type": "Feature",
      "properties": {
        "norad_id": 43567,
        "name": "GSAT0220 (GALILEO 24)",
        "group": "galileo",
        "lat": -34.72991345010923,
        "lon": -39.84624078520001,
        "alt_km": 23210.916404071133,
        "timestamp": "2025-12-17T19:34:08.301626+00:00",
        "meta_object_name": "GSAT0220 (GALILEO 24)",
        "meta_object_id": "2018-060D",
        "meta_epoch": "2025-12-13T18:41:25.404000",
        "meta_mean_motion": 1.70475925,
        "meta_eccentricity": 0.00061008,
        "meta_inclination": 57.2299,
        "meta_ra_of_asc_node": 346.7937,
        "meta_arg_of_pericenter": 285.541,
        "meta_mean_anomaly": 74.4106,
        "meta_ephemeris_type": 0,
        "meta_classification_type": "U",
        "meta_norad_cat_id": 43567,
        "meta_element_set_no": 999,
        "meta_rev_at_epoch": 4601,
        "meta_bstar": 0,
        "meta_mean_motion_dot": -8.5e-07,
        "meta_mean_motion_ddot": 0,
        "tle_line1": "1 43567U 18060D   25347.77876625 -.00000085  00000+0  00000+0 0  9991",
        "tle_line2": "2 43567  57.2299 346.7937 0006100 285.5410  74.4106  1.70475925 46015"
      },
      "geometry": {
        "type": "Point",
        "coordinates": [
          -39.84624078520001,
          -34.72991345010923
        ]
      }
    },
    {
      "type": "Feature",
      "properties": {
        "norad_id": 49809,
        "name": "GSAT0223 (GALILEO 27)",
        "group": "galileo",
        "lat": 38.70989161895805,
        "lon": 17.673183508318413,
        "alt_km": 23229.07130129807,
        "timestamp": "2025-12-17T19:34:08.301637+00:00",
        "meta_object_name": "GSAT0223 (GALILEO 27)",
        "meta_object_id": "2021-116A",
        "meta_epoch": "2025-12-16T20:22:21.643104",
        "meta_mean_motion": 1.70476101,
        "meta_eccentricity": 0.00044272,
        "meta_inclination": 57.2185,
        "meta_ra_of_asc_node": 346.6017,
        "meta_arg_of_pericenter": 254.1798,
        "meta_mean_anomaly": 280.7094,
        "meta_ephemeris_type": 0,
        "meta_classification_type": "U",
        "meta_norad_cat_id": 49809,
        "meta_element_set_no": 999,
        "meta_rev_at_epoch": 2507,
        "meta_bstar": 0,
        "meta_mean_motion_dot": -7.9e-07,
        "meta_mean_motion_ddot": 0,
        "tle_line1": "1 49809U 21116A   25350.84886161 -.00000079  00000+0  00000+0 0  9993",
        "tle_line2": "2 49809  57.2185 346.6017 0004427 254.1798 280.7094  1.70476101 25071"
      },
      "geometry": {
        "type": "Point",
        "coordinates": [
          17.673183508318413,
          38.70989161895805
        ]
      }
    },
    {
      "type": "Feature",
      "properties": {
        "norad_id": 49810,
        "name": "GSAT0224 (GALILEO 28)",
        "group": "galileo",
        "lat": 16.177373978856046,
        "lon": 155.7937701939522,
        "alt_km": 23221.520125204075,
        "timestamp": "2025-12-17T19:34:08.301648+00:00",
        "meta_object_name": "GSAT0224 (GALILEO 28)",
        "meta_object_id": "2021-116B",
        "meta_epoch": "2025-12-16T23:13:52.406688",
        "meta_mean_motion": 1.70476122,
        "meta_eccentricity": 0.00037953,
        "meta_inclination": 57.2194,
        "meta_ra_of_asc_node": 346.5971,
        "meta_arg_of_pericenter": 257.7514,
        "meta_mean_anomaly": 102.8295,
        "meta_ephemeris_type": 0,
        "meta_classification_type": "U",
        "meta_norad_cat_id": 49810,
        "meta_element_set_no": 999,
        "meta_rev_at_epoch": 2510,
        "meta_bstar": 0,
        "meta_mean_motion_dot": -7.9e-07,
        "meta_mean_motion_ddot": 0,
        "tle_line1": "1 49810U 21116B   25350.96796767 -.00000079  00000+0  00000+0 0  9990",
        "tle_line2": "2 49810  57.2194 346.5971 0003795 257.7514 102.8295  1.70476122 25107"
      },
      "geometry": {
        "type": "Point",
        "coordinates": [
          155.7937701939522,
          16.177373978856046
        ]
      }
    },
    {
      "type": "Feature",
      "properties": {
        "norad_id": 59598,
        "name": "GSAT0225 (GALILEO 29)",
        "group": "galileo",
        "lat": 21.658024221889423,
        "lon": -89.99201288903116,
        "alt_km": 23213.908415376693,
        "timestamp": "2025-12-17T19:34:08.301659+00:00",
        "meta_object_name": "GSAT0225 (GALILEO 29)",
        "meta_object_id": "2024-079A",
        "meta_epoch": "2025-12-16T09:22:38.225280",
        "meta_mean_motion": 1.70475011,
        "meta_eccentricity": 0.00021396,
        "meta_inclination": 55.0038,
        "meta_ra_of_asc_node": 106.1932,
        "meta_arg_of_pericenter": 182.0305,
        "meta_mean_anomaly": 176.7742,
        "meta_ephemeris_type": 0,
        "meta_classification_type": "U",
        "meta_norad_cat_id": 59598,
        "meta_element_set_no": 999,
        "meta_rev_at_epoch": 1019,
        "meta_bstar": 0,
        "meta_mean_motion_dot": -1e-07,
        "meta_mean_motion_ddot": 0,
        "tle_line1": "1 59598U 24079A   25350.39072020 -.00000010  00000+0  00000+0 0  9996",
        "tle_line2": "2 59598  55.0038 106.1932 0002139 182.0305 176.7742  1.70475011 10196"
      },
      "geometry": {
        "type": "Point",
        "coordinates": [
          -89.99201288903116,
          21.658024221889423
        ]
      }
    }
  ]
}